METHANESAT              
1 59101U 24043D   26014.92987549  .00001291  00000+0  11704-3 0  9993
2 59101  97.8227 145.5362 0010749 156.6262 203.5450 14.97086867101713
GOSAT-GW (IBUKI GW)     
1 64694U 25141A   26015.19125731  .00000529  00000+0  10170-3 0  9992
2 64694  98.0458 315.1034 0001409  82.3237 277.8128 14.67558736 29403
GHGSAT-C1               
1 46278U 20061G   26015.19562541  .00017365  00000+0  20953-3 0  9996
2 46278  97.2274  96.4232 0000914 197.7895 162.3330 15.60823328299530
GHGSAT-C12              
1 64529U 25135B   26015.16094431  .00002232  00000+0  10995-3 0  9999
2 64529  97.4609 131.6172 0004894   3.1906 356.9358 15.18989805 31588
GHGSAT-C13              
1 64548U 25135W   26015.17026487  .00001976  00000+0  95688-4 0  9994
2 64548  97.4635 131.9731 0000407  36.8628 323.2635 15.19734491 31600
GHGSAT-C2               
1 47509U 21006DA  26015.13480379  .00003816  00000+0  11245-3 0  9996
2 47509  97.2401  65.0277 0005525  17.1141 343.0289 15.35623092276346
GHGSAT-C3               
1 52737U 22057F   26015.19741554  .00004338  00000+0  14348-3 0  9990
2 52737  97.6353 155.6117 0005365 311.1803  48.8975 15.31903684202095
GHGSAT-C4               
1 52746U 22057Q   26015.21667197  .00004337  00000+0  14349-3 0  9993
2 52746  97.6280 154.6176 0005435 293.6495  66.4175 15.31893146202108
GHGSAT-C5               
1 52744U 22057N   26015.16883765  .00004200  00000+0  13911-3 0  9999
2 52744  97.6441 156.9773 0006259 306.0758  53.9903 15.31879914202094
GHGSAT-C6               
1 56204U 23054AC  26015.17970308  .00008477  00000+0  16413-3 0  9993
2 56204  97.3171 282.7887 0005961 228.4846 131.5893 15.47959138154747
GHGSAT-C7               
1 56209U 23054AH  26015.20302755  .00006762  00000+0  13981-3 0  9999
2 56209  97.3128 281.9353 0006502 222.8008 137.2736 15.46126821154724
GHGSAT-C8               
1 56186U 23054J   26015.15209522  .00008406  00000+0  16268-3 0  9993
2 56186  97.3137 282.1730 0003305 254.2109 105.8777 15.47988925154727
SENTINEL-5P             
1 42969U 17064A   26014.82463307  .00000032  00000+0  36269-4 0  9998
2 42969  98.7819 318.1220 0001142  87.6417 272.4890 14.19533029427802
ENMAP                   
1 52159U 22033C   26015.18825119  .00000190  00000+0  35647-4 0  9999
2 52159  97.9793  99.6218 0001263  90.6486 269.4868 14.74994655204102
PRISMA                  
1 44072U 19015A   26015.18269245  .00000728  00000+0  94491-4 0  9991
2 44072  97.8660  92.1543 0001331  93.6178 266.5188 14.83701581369362
SENTINEL-2A             
1 40697U 15028A   26015.20691047 -.00000189  00000+0 -54824-4 0  9991
2 40697  98.5703  92.2733 0003133 177.0120 183.1082 14.31511923551851
SENTINEL-2B             
1 42063U 17013A   26015.20048432 -.00000143  00000+0 -37976-4 0  9999
2 42063  98.5674  92.1706 0001134  89.5149 270.6163 14.30817872462767
SENTINEL-2C             
1 60989U 24157A   26015.16556773  .00000078  00000+0  46227-4 0  9994
2 60989  98.5635  92.1592 0001356  90.3094 269.8244 14.30827479 71107
LANDSAT 8               
1 39084U 13008A   26015.16701258  .00000244  00000+0  64233-4 0  9991
2 39084  98.2025  87.7394 0001211  96.4541 263.6795 14.57108168675618
LANDSAT 9               
1 49260U 21088A   26015.20148587  .00000246  00000+0  64737-4 0  9991
2 49260  98.2044  87.8195 0001201  95.1920 264.9415 14.57107442228725
